CCSDS_OMM_VERS = 2.0
CREATION_DATE  = 
ORIGINATOR     = 

OBJECT_NAME    = UNKNOWN
OBJECT_ID      = 
CENTER_NAME    = EARTH
REF_FRAME      = TEME
TIME_SYSTEM    = UTC
MEAN_ELEMENT_THEORY = SGP/SGP4

EPOCH          = 2026-02-28T14:00:50.731200
MEAN_MOTION    = 12.42204241
ECCENTRICITY   = .00258182
INCLINATION    = 73.6104
RA_OF_ASC_NODE = 176.0811
ARG_OF_PERICENTER = 2.1468
MEAN_ANOMALY   = 357.9683

EPHEMERIS_TYPE = 0
CLASSIFICATION_TYPE = U
NORAD_CAT_ID   = 270141
ELEMENT_SET_NO = 999
REV_AT_EPOCH   = 28376
BSTAR          = .1850942E-5
MEAN_MOTION_DOT = -.17E-6
MEAN_MOTION_DDOT = 0

CCSDS_OMM_VERS = 2.0
CREATION_DATE  = 
ORIGINATOR     = 

OBJECT_NAME    = UNKNOWN
OBJECT_ID      = 
CENTER_NAME    = EARTH
REF_FRAME      = TEME
TIME_SYSTEM    = UTC
MEAN_ELEMENT_THEORY = SGP/SGP4

EPOCH          = 2026-02-28T03:56:14.885952
MEAN_MOTION    = 13.06101593
ECCENTRICITY   = .00332338
INCLINATION    = 90.3107
RA_OF_ASC_NODE = 12.6049
ARG_OF_PERICENTER = 12.5214
MEAN_ANOMALY   = 347.6730

EPHEMERIS_TYPE = 0
CLASSIFICATION_TYPE = U
NORAD_CAT_ID   = 270149
ELEMENT_SET_NO = 999
REV_AT_EPOCH   = 29713
BSTAR          = .35471022E-2
MEAN_MOTION_DOT = .1175E-4
MEAN_MOTION_DDOT = 0

CCSDS_OMM_VERS = 2.0
CREATION_DATE  = 
ORIGINATOR     = 

OBJECT_NAME    = UNKNOWN
OBJECT_ID      = 
CENTER_NAME    = EARTH
REF_FRAME      = TEME
TIME_SYSTEM    = UTC
MEAN_ELEMENT_THEORY = SGP/SGP4

EPOCH          = 2026-02-23T09:24:21.919968
MEAN_MOTION    = 12.98959332
ECCENTRICITY   = .00369091
INCLINATION    = 90.3092
RA_OF_ASC_NODE = 40.2655
ARG_OF_PERICENTER = 288.4472
MEAN_ANOMALY   = 71.2639

EPHEMERIS_TYPE = 0
CLASSIFICATION_TYPE = U
NORAD_CAT_ID   = 270152
ELEMENT_SET_NO = 999
REV_AT_EPOCH   = 29583
BSTAR          = .16606863E-2
MEAN_MOTION_DOT = .501E-5
MEAN_MOTION_DDOT = 0

CCSDS_OMM_VERS = 2.0
CREATION_DATE  = 
ORIGINATOR     = 

OBJECT_NAME    = UNKNOWN
OBJECT_ID      = 
CENTER_NAME    = EARTH
REF_FRAME      = TEME
TIME_SYSTEM    = UTC
MEAN_ELEMENT_THEORY = SGP/SGP4

EPOCH          = 2026-02-27T20:35:05.896896
MEAN_MOTION    = 12.30591894
ECCENTRICITY   = .07503879
INCLINATION    = 83.2073
RA_OF_ASC_NODE = 116.1979
ARG_OF_PERICENTER = 216.3237
MEAN_ANOMALY   = 138.4622

EPHEMERIS_TYPE = 0
CLASSIFICATION_TYPE = U
NORAD_CAT_ID   = 270153
ELEMENT_SET_NO = 999
REV_AT_EPOCH   = 28034
BSTAR          = .38071536E-2
MEAN_MOTION_DOT = .1163E-4
MEAN_MOTION_DDOT = 0

CCSDS_OMM_VERS = 2.0
CREATION_DATE  = 
ORIGINATOR     = 

OBJECT_NAME    = UNKNOWN
OBJECT_ID      = 
CENTER_NAME    = EARTH
REF_FRAME      = TEME
TIME_SYSTEM    = UTC
MEAN_ELEMENT_THEORY = SGP/SGP4

EPOCH          = 2026-02-27T03:39:03.260448
MEAN_MOTION    = 12.96276014
ECCENTRICITY   = .00336806
INCLINATION    = 90.2484
RA_OF_ASC_NODE = 10.5916
ARG_OF_PERICENTER = 80.9043
MEAN_ANOMALY   = 279.5886

EPHEMERIS_TYPE = 0
CLASSIFICATION_TYPE = U
NORAD_CAT_ID   = 270154
ELEMENT_SET_NO = 999
REV_AT_EPOCH   = 29548
BSTAR          = .18173217E-2
MEAN_MOTION_DOT = .527E-5
MEAN_MOTION_DDOT = 0

CCSDS_OMM_VERS = 2.0
CREATION_DATE  = 
ORIGINATOR     = 

OBJECT_NAME    = UNKNOWN
OBJECT_ID      = 
CENTER_NAME    = EARTH
REF_FRAME      = TEME
TIME_SYSTEM    = UTC
MEAN_ELEMENT_THEORY = SGP/SGP4

EPOCH          = 2026-02-21T19:37:52.801536
MEAN_MOTION    = 12.54980098
ECCENTRICITY   = .00707649
INCLINATION    = 101.9290
RA_OF_ASC_NODE = 276.7310
ARG_OF_PERICENTER = 282.9476
MEAN_ANOMALY   = 76.3700

EPHEMERIS_TYPE = 0
CLASSIFICATION_TYPE = U
NORAD_CAT_ID   = 270155
ELEMENT_SET_NO = 999
REV_AT_EPOCH   = 28567
BSTAR          = .19927052E-2
MEAN_MOTION_DOT = .28E-5
MEAN_MOTION_DDOT = 0

CCSDS_OMM_VERS = 2.0
CREATION_DATE  = 
ORIGINATOR     = 

OBJECT_NAME    = UNKNOWN
OBJECT_ID      = 
CENTER_NAME    = EARTH
REF_FRAME      = TEME
TIME_SYSTEM    = UTC
MEAN_ELEMENT_THEORY = SGP/SGP4

EPOCH          = 2026-02-03T04:56:41.203680
MEAN_MOTION    = 13.04422383
ECCENTRICITY   = .00204892
INCLINATION    = 90.2221
RA_OF_ASC_NODE = 15.4320
ARG_OF_PERICENTER = 160.0948
MEAN_ANOMALY   = 200.0980

EPHEMERIS_TYPE = 0
CLASSIFICATION_TYPE = U
NORAD_CAT_ID   = 270156
ELEMENT_SET_NO = 999
REV_AT_EPOCH   = 29311
BSTAR          = -.20007142E-2
MEAN_MOTION_DOT = -.634E-5
MEAN_MOTION_DDOT = 0

CCSDS_OMM_VERS = 2.0
CREATION_DATE  = 
ORIGINATOR     = 

OBJECT_NAME    = UNKNOWN
OBJECT_ID      = 
CENTER_NAME    = EARTH
REF_FRAME      = TEME
TIME_SYSTEM    = UTC
MEAN_ELEMENT_THEORY = SGP/SGP4

EPOCH          = 2026-02-24T19:59:30.337728
MEAN_MOTION    = 12.21567666
ECCENTRICITY   = .01376147
INCLINATION    = 74.0010
RA_OF_ASC_NODE = 108.4010
ARG_OF_PERICENTER = 218.7721
MEAN_ANOMALY   = 140.3376

EPHEMERIS_TYPE = 0
CLASSIFICATION_TYPE = U
NORAD_CAT_ID   = 270158
ELEMENT_SET_NO = 999
REV_AT_EPOCH   = 27872
BSTAR          = .13219068E-3
MEAN_MOTION_DOT = -.1E-7
MEAN_MOTION_DDOT = 0

CCSDS_OMM_VERS = 2.0
CREATION_DATE  = 
ORIGINATOR     = 

OBJECT_NAME    = UNKNOWN
OBJECT_ID      = 
CENTER_NAME    = EARTH
REF_FRAME      = TEME
TIME_SYSTEM    = UTC
MEAN_ELEMENT_THEORY = SGP/SGP4

EPOCH          = 2026-02-28T15:53:02.727168
MEAN_MOTION    = 12.81679474
ECCENTRICITY   = .027564
INCLINATION    = 62.9617
RA_OF_ASC_NODE = 34.5607
ARG_OF_PERICENTER = 225.9260
MEAN_ANOMALY   = 131.8740

EPHEMERIS_TYPE = 0
CLASSIFICATION_TYPE = U
NORAD_CAT_ID   = 270159
ELEMENT_SET_NO = 999
REV_AT_EPOCH   = 29279
BSTAR          = -.24123859E-3
MEAN_MOTION_DOT = -.144E-5
MEAN_MOTION_DDOT = 0

CCSDS_OMM_VERS = 2.0
CREATION_DATE  = 
ORIGINATOR     = 

OBJECT_NAME    = UNKNOWN
OBJECT_ID      = 
CENTER_NAME    = EARTH
REF_FRAME      = TEME
TIME_SYSTEM    = UTC
MEAN_ELEMENT_THEORY = SGP/SGP4

EPOCH          = 2026-02-26T11:41:41.278848
MEAN_MOTION    = 12.15969695
ECCENTRICITY   = .08741314
INCLINATION    = 83.2678
RA_OF_ASC_NODE = 340.4053
ARG_OF_PERICENTER = 105.8462
MEAN_ANOMALY   = 264.0646

EPHEMERIS_TYPE = 0
CLASSIFICATION_TYPE = U
NORAD_CAT_ID   = 270160
ELEMENT_SET_NO = 999
REV_AT_EPOCH   = 27623
BSTAR          = .92230044E-2
MEAN_MOTION_DOT = .3044E-4
MEAN_MOTION_DDOT = 0

CCSDS_OMM_VERS = 2.0
CREATION_DATE  = 
ORIGINATOR     = 

OBJECT_NAME    = UNKNOWN
OBJECT_ID      = 
CENTER_NAME    = EARTH
REF_FRAME      = TEME
TIME_SYSTEM    = UTC
MEAN_ELEMENT_THEORY = SGP/SGP4

EPOCH          = 2026-03-01T18:18:42.293664
MEAN_MOTION    = 12.76601017
ECCENTRICITY   = .00538835
INCLINATION    = 101.1088
RA_OF_ASC_NODE = 46.6903
ARG_OF_PERICENTER = 101.4194
MEAN_ANOMALY   = 259.2953

EPHEMERIS_TYPE = 0
CLASSIFICATION_TYPE = U
NORAD_CAT_ID   = 270161
ELEMENT_SET_NO = 999
REV_AT_EPOCH   = 29126
BSTAR          = .18303926E-2
MEAN_MOTION_DOT = .356E-5
MEAN_MOTION_DDOT = 0

CCSDS_OMM_VERS = 2.0
CREATION_DATE  = 
ORIGINATOR     = 

OBJECT_NAME    = UNKNOWN
OBJECT_ID      = 
CENTER_NAME    = EARTH
REF_FRAME      = TEME
TIME_SYSTEM    = UTC
MEAN_ELEMENT_THEORY = SGP/SGP4

EPOCH          = 2026-02-04T03:43:02.942688
MEAN_MOTION    = 12.64542644
ECCENTRICITY   = .09256333
INCLINATION    = 28.8478
RA_OF_ASC_NODE = 352.8808
ARG_OF_PERICENTER = 287.8893
MEAN_ANOMALY   = 62.2913

EPHEMERIS_TYPE = 0
CLASSIFICATION_TYPE = U
NORAD_CAT_ID   = 270162
ELEMENT_SET_NO = 999
REV_AT_EPOCH   = 28501
BSTAR          = .70926834E-3
MEAN_MOTION_DOT = .815E-5
MEAN_MOTION_DDOT = 0

CCSDS_OMM_VERS = 2.0
CREATION_DATE  = 
ORIGINATOR     = 

OBJECT_NAME    = UNKNOWN
OBJECT_ID      = 
CENTER_NAME    = EARTH
REF_FRAME      = TEME
TIME_SYSTEM    = UTC
MEAN_ELEMENT_THEORY = SGP/SGP4

EPOCH          = 2026-02-23T20:07:47.086752
MEAN_MOTION    = 13.00006749
ECCENTRICITY   = .0024545
INCLINATION    = 90.2461
RA_OF_ASC_NODE = 8.7202
ARG_OF_PERICENTER = 206.5393
MEAN_ANOMALY   = 153.4474

EPHEMERIS_TYPE = 0
CLASSIFICATION_TYPE = U
NORAD_CAT_ID   = 270164
ELEMENT_SET_NO = 999
REV_AT_EPOCH   = 29525
BSTAR          = .11090365E-2
MEAN_MOTION_DOT = .341E-5
MEAN_MOTION_DDOT = 0

CCSDS_OMM_VERS = 2.0
CREATION_DATE  = 
ORIGINATOR     = 

OBJECT_NAME    = UNKNOWN
OBJECT_ID      = 
CENTER_NAME    = EARTH
REF_FRAME      = TEME
TIME_SYSTEM    = UTC
MEAN_ELEMENT_THEORY = SGP/SGP4

EPOCH          = 2026-02-04T05:08:41.686368
MEAN_MOTION    = 12.95696277
ECCENTRICITY   = .00421421
INCLINATION    = 90.2420
RA_OF_ASC_NODE = 9.2357
ARG_OF_PERICENTER = 184.1265
MEAN_ANOMALY   = 175.9514

EPHEMERIS_TYPE = 0
CLASSIFICATION_TYPE = U
NORAD_CAT_ID   = 270165
ELEMENT_SET_NO = 999
REV_AT_EPOCH   = 29124
BSTAR          = .14032366E-2
MEAN_MOTION_DOT = .406E-5
MEAN_MOTION_DDOT = 0

CCSDS_OMM_VERS = 2.0
CREATION_DATE  = 
ORIGINATOR     = 

OBJECT_NAME    = UNKNOWN
OBJECT_ID      = 
CENTER_NAME    = EARTH
REF_FRAME      = TEME
TIME_SYSTEM    = UTC
MEAN_ELEMENT_THEORY = SGP/SGP4

EPOCH          = 2026-01-31T18:34:17.153760
MEAN_MOTION    = 14.31251598
ECCENTRICITY   = .00061391
INCLINATION    = 98.7483
RA_OF_ASC_NODE = 52.8595
ARG_OF_PERICENTER = 97.0673
MEAN_ANOMALY   = 263.1208

EPHEMERIS_TYPE = 0
CLASSIFICATION_TYPE = U
NORAD_CAT_ID   = 270166
ELEMENT_SET_NO = 999
REV_AT_EPOCH   = 32228
BSTAR          = .1554706E-3
MEAN_MOTION_DOT = .366E-5
MEAN_MOTION_DDOT = 0

CCSDS_OMM_VERS = 2.0
CREATION_DATE  = 
ORIGINATOR     = 

OBJECT_NAME    = UNKNOWN
OBJECT_ID      = 
CENTER_NAME    = EARTH
REF_FRAME      = TEME
TIME_SYSTEM    = UTC
MEAN_ELEMENT_THEORY = SGP/SGP4

EPOCH          = 2026-02-26T11:56:22.259040
MEAN_MOTION    = 11.48026764
ECCENTRICITY   = .06982932
INCLINATION    = 65.7383
RA_OF_ASC_NODE = 351.8824
ARG_OF_PERICENTER = 170.9615
MEAN_ANOMALY   = 190.4693

EPHEMERIS_TYPE = 0
CLASSIFICATION_TYPE = U
NORAD_CAT_ID   = 270167
ELEMENT_SET_NO = 999
REV_AT_EPOCH   = 26179
BSTAR          = -.50455715E-4
MEAN_MOTION_DOT = -.46E-6
MEAN_MOTION_DDOT = 0

